0 FORMOSAT 3F
1 29052U 06011F   13282.04043642  .00000392  00000-0  17337-3 0  3032
2 29052 072.0343 099.4243 0042616 282.1008 214.0121 14.27806812391586
0 FORMOSAT 3F
1 29052U 06011F   13283.49112942  .00000349  00000-0  15653-3 0  3044
2 29052 072.0343 096.4764 0042632 279.6311 110.6841 14.27808552391793
0 FORMOSAT 3F
1 29052U 06011F   13286.50840815  .00000284  00000-0  13033-3 0  3066
2 29052 072.0349 090.3453 0042690 274.6504 139.5905 14.27810612392220
0 FORMOSAT 3F
1 29052U 06011F   13287.77577353  .00000420  00000-0  18458-3 0  3079
2 29052 072.0351 087.7699 0042688 272.5609 173.8972 14.27811552392404
0 FORMOSAT 3F
1 29052U 06011F   13288.82782163  .00000449  00000-0  19639-3 0  3087
2 29052 072.0352 085.6323 0042775 270.8033 181.4909 14.27812177392550
0 FORMOSAT 3F
1 29052U 06011F   13290.02342476  .00000390  00000-0  17280-3 0  3097
2 29052 072.0355 083.2029 0042743 268.8444 206.9280 14.27813657392726
0 FORMOSAT 3F
1 29052U 06011F   13291.07678765  .00000373  00000-0  16585-3 0  3106
2 29052 072.0357 081.0627 0042717 267.1036 221.2658 14.27814758392876
0 FORMOSAT 3F
1 29052U 06011F   13292.46371904  .00000407  00000-0  17936-3 0  3115
2 29052 072.0359 078.2447 0042705 264.8096 150.1706 14.27815713393072
0 FORMOSAT 3F
1 29052U 06011F   13293.80598544  .00000489  00000-0  21234-3 0  3122
2 29052 072.0361 075.5178 0042679 262.6212 209.4718 14.27816097393260
0 FORMOSAT 3F
1 29052U 06011F   13295.06902515  .00000483  00000-0  21005-3 0  3130
2 29052 072.0361 072.9514 0042709 260.5160 221.5918 14.27817161393448
